SATELIOT_4              
1 60537U 24149BX  26068.74229552  .00002907  00000+0  26256-3 0  9990
2 60537  97.6789 145.1106 0002390  45.2073 314.9342 14.96254023 85108
STARLINK-34649          
1 64798U 25150J   26068.54938020  .00000912  00000+0  84171-4 0  9996
2 64798  70.0024 134.9019 0003321 258.4155 101.6631 14.98332147 37386
