[{"OBJECT_NAME":"SATELIOT_4","OBJECT_ID":"2024-149BX","EPOCH":"2026-03-09T17:48:54.333792","MEAN_MOTION":14.96254023,"ECCENTRICITY":0.00023903,"INCLINATION":97.6789,"RA_OF_ASC_NODE":145.1106,"ARG_OF_PERICENTER":45.2073,"MEAN_ANOMALY":314.9342,"EPHEMERIS_TYPE":0,"CLASSIFICATION_TYPE":"U","NORAD_CAT_ID":60537,"ELEMENT_SET_NO":999,"REV_AT_EPOCH":8510,"BSTAR":0.00026256084,"MEAN_MOTION_DOT":2.907e-5,"MEAN_MOTION_DDOT":0},{"OBJECT_NAME":"STARLINK-34649","OBJECT_ID":"2025-150J","EPOCH":"2026-03-09T13:11:06.449280","MEAN_MOTION":14.98332147,"ECCENTRICITY":0.00033215,"INCLINATION":70.0024,"RA_OF_ASC_NODE":134.9019,"ARG_OF_PERICENTER":258.4155,"MEAN_ANOMALY":101.6631,"EPHEMERIS_TYPE":0,"CLASSIFICATION_TYPE":"U","NORAD_CAT_ID":64798,"ELEMENT_SET_NO":999,"REV_AT_EPOCH":3738,"BSTAR":8.417142e-5,"MEAN_MOTION_DOT":9.12e-6,"MEAN_MOTION_DDOT":0}]
